IRIDIUM 144             
1 43249U 18030A   24315.54717051  .00000183  00000+0  58249-4 0  9992
2 43249  86.4007 174.3655 0002267  78.5043 281.6407 14.34219842346485
IRIDIUM 149             
1 43250U 18030B   24315.55351075  .00000079  00000+0  21237-4 0  9996
2 43250  86.4007 174.3362 0001811  79.8281 280.3119 14.34217963346505
IRIDIUM 157             
1 43251U 18030C   24315.50276942  .00000821  00000+0  28616-3 0  9993
2 43251  86.4011 174.3975 0001844  87.0049 273.1358 14.34220546346472
IRIDIUM 140             
1 43252U 18030D   24315.31249519  .00000940  00000+0  32843-3 0  9992
2 43252  86.4010 174.4913 0002131  85.0437 275.1002 14.34218321346504
IRIDIUM 145             
1 43253U 18030E   24315.09050170  .00000759  00000+0  26398-3 0  9997
2 43253  86.4010 174.5570 0002133  73.4687 286.6743 14.34219952346404
IRIDIUM 146             
1 43254U 18030F   24315.07148016  .00001257  00000+0  44159-3 0  9992
2 43254  86.4013 174.5789 0002065  74.3844 285.7579 14.34215911346418
IRIDIUM 148             
1 43255U 18030G   24314.90022511  .00001229  00000+0  43176-3 0  9992
2 43255  86.4012 174.6847 0001947  79.3064 280.8351 14.34221512346420
IRIDIUM 142             
1 43256U 18030H   24315.35688886  .00000389  00000+0  13197-3 0  9992
2 43256  86.4008 174.4045 0001976  71.5330 288.6080 14.34212366346451
